<?xml version="1.0" encoding="UTF-8"?>
<kml xmlns="http://www.opengis.net/kml/2.2">
  <Document>
    <name>Fly to Vietnam</name>
    <gx:duration>0.5</gx:duration>
		<gx:flyToMode>smooth</gx:flyToMode>
    <Placemark>
      <name>Vietnam</name>
      <LookAt>
        <longitude>105.8</longitude>
        <latitude>15.9</latitude>
        <range>4000000</range>
        <tilt>0</tilt>
        <heading>0</heading>
      </LookAt>
      <Point>
        <coordinates>105.8,15.9,0</coordinates>
      </Point>
    </Placemark>

  </Document>
</kml>


